start=new Date('2022-06-25T00:00:00.000Z').valueOf();
sats=[{"SEMIMAJOR_AXIS":"6925.363","TLE_LINE2":"2 47170  53.0544 260.5431 0001452  63.8522 296.2616 15.06395223 87745","GP_ID":"206786944","MEAN_MOTION_DDOT":"0.0000000000000","REF_FRAME":"TEME","CENTER_NAME":"EARTH","NORAD_CAT_ID":"47170","MEAN_ANOMALY":"296.2616","APOAPSIS":"548.234","COUNTRY_CODE":"US","ELEMENT_SET_NO":"999","BSTAR":"0.00003215800000","OBJECT_ID":"2020-088BA","CLASSIFICATION_TYPE":"U","SITE":"AFETR","OBJECT_NAME":"STARLINK-1887","EPHEMERIS_TYPE":"0","DECAY_DATE":null,"OBJECT_TYPE":"PAYLOAD","ECCENTRICITY":"0.00014520","MEAN_MOTION":"15.06395223","RCS_SIZE":"LARGE","EPOCH":"2022-06-24T13:25:41.096352","PERIAPSIS":"546.223","ARG_OF_PERICENTER":"63.8522","FILE":"3501798","REV_AT_EPOCH":"8774","INCLINATION":"53.0544","PERIOD":"95.592","RA_OF_ASC_NODE":"260.5431","MEAN_ELEMENT_THEORY":"SGP4","TLE_LINE1":"1 47170U 20088BA  22175.55950343  .00000197  00000-0  32158-4 0  9998","LAUNCH_DATE":"2020-11-25","TIME_SYSTEM":"UTC","MEAN_MOTION_DOT":"0.00000197"},{"REF_FRAME":"TEME","MEAN_MOTION_DDOT":"0.0000000000000","GP_ID":"206787194","TLE_LINE2":"2 47171  53.0538 250.4557 0001434  57.3104 302.8023 15.06385135 87882","SEMIMAJOR_AXIS":"6925.394","CENTER_NAME":"EARTH","MEAN_ANOMALY":"302.8023","NORAD_CAT_ID":"47171","CLASSIFICATION_TYPE":"U","OBJECT_ID":"2020-088BB","ELEMENT_SET_NO":"999","BSTAR":"0.00022082000000","COUNTRY_CODE":"US","APOAPSIS":"548.252","DECAY_DATE":null,"EPHEMERIS_TYPE":"0","OBJECT_NAME":"STARLINK-1888","SITE":"AFETR","MEAN_MOTION":"15.06385135","ECCENTRICITY":"0.00014340","OBJECT_TYPE":"PAYLOAD","FILE":"3501798","ARG_OF_PERICENTER":"57.3104","PERIAPSIS":"546.266","EPOCH":"2022-06-24T13:53:33.691488","RCS_SIZE":"LARGE","MEAN_MOTION_DOT":"0.00003008","TIME_SYSTEM":"UTC","LAUNCH_DATE":"2020-11-25","TLE_LINE1":"1 47171U 20088BB  22175.57886217  .00003008  00000-0  22082-3 0  9997","RA_OF_ASC_NODE":"250.4557","PERIOD":"95.593","MEAN_ELEMENT_THEORY":"SGP4","INCLINATION":"53.0538","REV_AT_EPOCH":"8788"},{"OBJECT_TYPE":"PAYLOAD","MEAN_MOTION":"15.06398220","ECCENTRICITY":"0.00014540","SITE":"AFETR","EPHEMERIS_TYPE":"0","DECAY_DATE":null,"OBJECT_NAME":"STARLINK-1890","RA_OF_ASC_NODE":"260.5046","PERIOD":"95.592","MEAN_ELEMENT_THEORY":"SGP4","TLE_LINE1":"1 47173U 20088BD  22175.57057103  .00001913  00000-0  14731-3 0  9998","REV_AT_EPOCH":"8774","INCLINATION":"53.0529","MEAN_MOTION_DOT":"0.00001913","LAUNCH_DATE":"2020-11-25","TIME_SYSTEM":"UTC","EPOCH":"2022-06-24T13:41:37.336992","RCS_SIZE":"LARGE","FILE":"3501798","PERIAPSIS":"546.212","ARG_OF_PERICENTER":"47.5946","CENTER_NAME":"EARTH","GP_ID":"206787445","MEAN_MOTION_DDOT":"0.0000000000000","SEMIMAJOR_AXIS":"6925.354","TLE_LINE2":"2 47173  53.0529 260.5046 0001454  47.5946 312.5166 15.06398220 87746","REF_FRAME":"TEME","ELEMENT_SET_NO":"999","BSTAR":"0.00014731000000","OBJECT_ID":"2020-088BD","APOAPSIS":"548.226","COUNTRY_CODE":"US","CLASSIFICATION_TYPE":"U","NORAD_CAT_ID":"47173","MEAN_ANOMALY":"312.5166"},{"SITE":"AFETR","OBJECT_NAME":"STARLINK-1891","DECAY_DATE":null,"EPHEMERIS_TYPE":"0","OBJECT_TYPE":"PAYLOAD","ECCENTRICITY":"0.00017650","MEAN_MOTION":"15.06382894","RCS_SIZE":"LARGE","EPOCH":"2022-06-24T13:57:32.566752","ARG_OF_PERICENTER":"54.4763","PERIAPSIS":"546.044","FILE":"3501798","INCLINATION":"53.0533","REV_AT_EPOCH":"8774","TLE_LINE1":"1 47174U 20088BE  22175.58162693 -.00000368  00000-0 -57837-5 0  9992","RA_OF_ASC_NODE":"260.4434","PERIOD":"95.593","MEAN_ELEMENT_THEORY":"SGP4","LAUNCH_DATE":"2020-11-25","TIME_SYSTEM":"UTC","MEAN_MOTION_DOT":"-0.00000368","TLE_LINE2":"2 47174  53.0533 260.4434 0001765  54.4763 305.6390 15.06382894 87743","SEMIMAJOR_AXIS":"6925.401","MEAN_MOTION_DDOT":"0.0000000000000","GP_ID":"206787695","REF_FRAME":"TEME","CENTER_NAME":"EARTH","NORAD_CAT_ID":"47174","MEAN_ANOMALY":"305.6390","COUNTRY_CODE":"US","APOAPSIS":"548.488","OBJECT_ID":"2020-088BE","BSTAR":"-0.00000578370000","ELEMENT_SET_NO":"999","CLASSIFICATION_TYPE":"U"},{"REV_AT_EPOCH":"8803","INCLINATION":"53.0543","PERIOD":"95.592","RA_OF_ASC_NODE":"240.1624","MEAN_ELEMENT_THEORY":"SGP4","TLE_LINE1":"1 47175U 20088BF  22175.64612377  .00001912  00000-0  14720-3 0  9995","LAUNCH_DATE":"2020-11-25","TIME_SYSTEM":"UTC","MEAN_MOTION_DOT":"0.00001912","RCS_SIZE":"LARGE","EPOCH":"2022-06-24T15:30:25.093728","PERIAPSIS":"545.947","ARG_OF_PERICENTER":"50.0642","FILE":"3501798","OBJECT_TYPE":"PAYLOAD","ECCENTRICITY":"0.00018290","MEAN_MOTION":"15.06399825","SITE":"AFETR","OBJECT_NAME":"STARLINK-1895","EPHEMERIS_TYPE":"0","DECAY_DATE":null,"APOAPSIS":"548.481","COUNTRY_CODE":"US","ELEMENT_SET_NO":"999","BSTAR":"0.00014720000000","OBJECT_ID":"2020-088BF","CLASSIFICATION_TYPE":"U","NORAD_CAT_ID":"47175","MEAN_ANOMALY":"310.0508","CENTER_NAME":"EARTH","SEMIMAJOR_AXIS":"6925.349","TLE_LINE2":"2 47175  53.0543 240.1624 0001829  50.0642 310.0508 15.06399825 88036","GP_ID":"206786444","MEAN_MOTION_DDOT":"0.0000000000000","REF_FRAME":"TEME"},{"TIME_SYSTEM":"UTC","LAUNCH_DATE":"2020-11-25","MEAN_MOTION_DOT":"-0.00000261","REV_AT_EPOCH":"8793","INCLINATION":"53.0569","RA_OF_ASC_NODE":"249.0447","PERIOD":"95.592","MEAN_ELEMENT_THEORY":"SGP4","TLE_LINE1":"1 47177U 20088BH  22175.89584589 -.00000261  00000-0  13659-5 0  9996","PERIAPSIS":"546.134","ARG_OF_PERICENTER":"72.0420","FILE":"3501798","RCS_SIZE":"LARGE","EPOCH":"2022-06-24T21:30:01.084896","ECCENTRICITY":"0.00015800","MEAN_MOTION":"15.06395292","OBJECT_TYPE":"PAYLOAD","OBJECT_NAME":"STARLINK-1907","EPHEMERIS_TYPE":"0","DECAY_DATE":null,"SITE":"AFETR","CLASSIFICATION_TYPE":"U","APOAPSIS":"548.322","COUNTRY_CODE":"US","BSTAR":"0.00000136590000","ELEMENT_SET_NO":"999","OBJECT_ID":"2020-088BH","MEAN_ANOMALY":"288.0741","NORAD_CAT_ID":"47177","CENTER_NAME":"EARTH","REF_FRAME":"TEME","SEMIMAJOR_AXIS":"6925.363","TLE_LINE2":"2 47177  53.0569 249.0447 0001580  72.0420 288.0741 15.06395292 87934","GP_ID":"206786694","MEAN_MOTION_DDOT":"0.0000000000000"},{"MEAN_MOTION":"15.06396143","ECCENTRICITY":"0.00014360","OBJECT_TYPE":"PAYLOAD","EPHEMERIS_TYPE":"0","DECAY_DATE":null,"OBJECT_NAME":"STARLINK-1912","SITE":"AFETR","MEAN_MOTION_DOT":"0.00001681","TIME_SYSTEM":"UTC","LAUNCH_DATE":"2020-11-25","PERIOD":"95.592","MEAN_ELEMENT_THEORY":"SGP4","RA_OF_ASC_NODE":"260.6102","TLE_LINE1":"1 47178U 20088BJ  22175.54476139  .00001681  00000-0  13176-3 0  9998","REV_AT_EPOCH":"8773","INCLINATION":"53.0543","FILE":"3501798","PERIAPSIS":"546.231","ARG_OF_PERICENTER":"75.2506","EPOCH":"2022-06-24T13:04:27.384096","RCS_SIZE":"LARGE","CENTER_NAME":"EARTH","REF_FRAME":"TEME","GP_ID":"206787945","MEAN_MOTION_DDOT":"0.0000000000000","SEMIMAJOR_AXIS":"6925.360","TLE_LINE2":"2 47178  53.0543 260.6102 0001436  75.2506 284.8642 15.06396143 87732","CLASSIFICATION_TYPE":"U","ELEMENT_SET_NO":"999","BSTAR":"0.00013176000000","OBJECT_ID":"2020-088BJ","APOAPSIS":"548.220","COUNTRY_CODE":"US","MEAN_ANOMALY":"284.8642","NORAD_CAT_ID":"47178"},{"APOAPSIS":"548.216","COUNTRY_CODE":"US","BSTAR":"-0.00003240200000","ELEMENT_SET_NO":"999","OBJECT_ID":"2020-088BK","CLASSIFICATION_TYPE":"U","NORAD_CAT_ID":"47179","MEAN_ANOMALY":"265.5232","CENTER_NAME":"EARTH","SEMIMAJOR_AXIS":"6925.376","TLE_LINE2":"2 47179  53.0577 270.0680 0001407  94.5918 265.5232 15.06390924 87614","GP_ID":"206788196","MEAN_MOTION_DDOT":"0.0000000000000","REF_FRAME":"TEME","REV_AT_EPOCH":"8761","INCLINATION":"53.0577","MEAN_ELEMENT_THEORY":"SGP4","PERIOD":"95.593","RA_OF_ASC_NODE":"270.0680","TLE_LINE1":"1 47179U 20088BK  22175.66547581 -.00000764  00000-0 -32402-4 0  9999","LAUNCH_DATE":"2020-11-25","TIME_SYSTEM":"UTC","MEAN_MOTION_DOT":"-0.00000764","RCS_SIZE":"LARGE","EPOCH":"2022-06-24T15:58:17.109984","PERIAPSIS":"546.267","ARG_OF_PERICENTER":"94.5918","FILE":"3501798","OBJECT_TYPE":"PAYLOAD","ECCENTRICITY":"0.00014070","MEAN_MOTION":"15.06390924","SITE":"AFETR","OBJECT_NAME":"STARLINK-1913","EPHEMERIS_TYPE":"0","DECAY_DATE":null},{"SITE":"AFETR","DECAY_DATE":null,"EPHEMERIS_TYPE":"0","OBJECT_NAME":"STARLINK-1927","OBJECT_TYPE":"PAYLOAD","MEAN_MOTION":"15.06390332","ECCENTRICITY":"0.00017820","EPOCH":"2022-06-24T21:41:58.162560","RCS_SIZE":"LARGE","FILE":"3501798","ARG_OF_PERICENTER":"50.6239","PERIAPSIS":"546.009","TLE_LINE1":"1 47181U 20088BM  22175.90414540 -.00000157  00000-0  83769-5 0  9995","PERIOD":"95.593","RA_OF_ASC_NODE":"239.0122","MEAN_ELEMENT_THEORY":"SGP4","INCLINATION":"53.0551","REV_AT_EPOCH":"8806","MEAN_MOTION_DOT":"-0.00000157","LAUNCH_DATE":"2020-11-25","TIME_SYSTEM":"UTC","MEAN_MOTION_DDOT":"0.0000000000000","GP_ID":"206786945","TLE_LINE2":"2 47181  53.0551 239.0122 0001782  50.6239 309.4908 15.06390332 88061","SEMIMAJOR_AXIS":"6925.378","REF_FRAME":"TEME","CENTER_NAME":"EARTH","NORAD_CAT_ID":"47181","MEAN_ANOMALY":"309.4908","OBJECT_ID":"2020-088BM","ELEMENT_SET_NO":"999","BSTAR":"0.00000837690000","COUNTRY_CODE":"US","APOAPSIS":"548.477","CLASSIFICATION_TYPE":"U"},{"REF_FRAME":"TEME","SEMIMAJOR_AXIS":"6717.271","TLE_LINE2":"2 47349  53.0300 242.4984 0003436   7.7981 352.3091 15.76933811 80815","GP_ID":"206756804","MEAN_MOTION_DDOT":"0.0000000000000","CENTER_NAME":"EARTH","MEAN_ANOMALY":"352.3091","NORAD_CAT_ID":"47349","CLASSIFICATION_TYPE":"U","APOAPSIS":"341.444","COUNTRY_CODE":"US","ELEMENT_SET_NO":"999","BSTAR":"0.00024374000000","OBJECT_ID":"2021-005A","OBJECT_NAME":"STARLINK-1952","EPHEMERIS_TYPE":"0","DECAY_DATE":null,"SITE":"AFETR","ECCENTRICITY":"0.00034360","MEAN_MOTION":"15.76933811","OBJECT_TYPE":"PAYLOAD","PERIAPSIS":"336.828","ARG_OF_PERICENTER":"7.7981","FILE":"3501501","RCS_SIZE":"LARGE","EPOCH":"2022-06-23T21:32:07.749888","LAUNCH_DATE":"2021-01-20","TIME_SYSTEM":"UTC","MEAN_MOTION_DOT":"0.00039801","REV_AT_EPOCH":"8081","INCLINATION":"53.0300","PERIOD":"91.316","MEAN_ELEMENT_THEORY":"SGP4","RA_OF_ASC_NODE":"242.4984","TLE_LINE1":"1 47349U 21005A   22174.89731192  .00039801  00000-0  24374-3 0  9995"}];
